{
    "links": {
        "self": "http://www.neowsapp.com/rest/v1/neo/3872646?api_key=iIulBulltgU6a56xZRHN4H3l9WmuAYTsLGpBGhQ2"
    },
    "id": "3872646",
    "neo_reference_id": "3872646",
    "name": "(2019 SS8)",
    "designation": "2019 SS8",
    "nasa_jpl_url": "http://ssd.jpl.nasa.gov/sbdb.cgi?sstr=3872646",
    "absolute_magnitude_h": 25.4,
    "estimated_diameter": {
        "kilometers": {
            "estimated_diameter_min": 0.022108281,
            "estimated_diameter_max": 0.0494356193
        },
        "meters": {
            "estimated_diameter_min": 22.1082810359,
            "estimated_diameter_max": 49.435619262
        },
        "miles": {
            "estimated_diameter_min": 0.0137374447,
            "estimated_diameter_max": 0.0307178602
        },
        "feet": {
            "estimated_diameter_min": 72.5337327539,
            "estimated_diameter_max": 162.1903570994
        }
    },
    "is_potentially_hazardous_asteroid": false,
    "close_approach_data": [
        {
            "close_approach_date": "2017-09-09",
            "close_approach_date_full": "2017-Sep-09 00:08",
            "epoch_date_close_approach": 1504915680000,
            "relative_velocity": {
                "kilometers_per_second": "12.4225663692",
                "kilometers_per_hour": "44721.2389291816",
                "miles_per_hour": "27788.0387113017"
            },
            "miss_distance": {
                "astronomical": "0.4220444892",
                "lunar": "164.1753062988",
                "kilometers": "63136956.629558004",
                "miles": "39231485.6614442952"
            },
            "orbiting_body": "Earth"
        },
        {
            "close_approach_date": "2019-09-26",
            "close_approach_date_full": "2019-Sep-26 03:48",
            "epoch_date_close_approach": 1569469680000,
            "relative_velocity": {
                "kilometers_per_second": "6.4742701057",
                "kilometers_per_hour": "23307.3723805106",
                "miles_per_hour": "14482.2947994345"
            },
            "miss_distance": {
                "astronomical": "0.1133595861",
                "lunar": "44.0968789929",
                "kilometers": "16958352.624641607",
                "miles": "10537431.6937518966"
            },
            "orbiting_body": "Earth"
        },
        {
            "close_approach_date": "2021-10-07",
            "close_approach_date_full": "2021-Oct-07 16:48",
            "epoch_date_close_approach": 1633625280000,
            "relative_velocity": {
                "kilometers_per_second": "11.1345727218",
                "kilometers_per_hour": "40084.4617983392",
                "miles_per_hour": "24906.925721307"
            },
            "miss_distance": {
                "astronomical": "0.323066017",
                "lunar": "125.672680613",
                "kilometers": "48329988.01258379",
                "miles": "30030862.001444702"
            },
            "orbiting_body": "Earth"
        }
    ],
    "orbital_data": {
        "orbit_id": "4",
        "orbit_determination_date": "2019-10-11 06:27:57",
        "first_observation_date": "2019-09-26",
        "last_observation_date": "2019-10-08",
        "data_arc_in_days": 12,
        "observations_used": 26,
        "orbit_uncertainty": "8",
        "minimum_orbit_intersection": ".101887",
        "jupiter_tisserand_invariant": "4.258",
        "epoch_osculation": "2458754.5",
        "eccentricity": ".3177415948221383",
        "semi_major_axis": "1.616385725045128",
        "inclination": "10.73831141983822",
        "ascending_node_longitude": "8.588930575072309",
        "orbital_period": "750.6127487684853",
        "perihelion_distance": "1.102792746921551",
        "perihelion_argument": "352.8498477176705",
        "aphelion_distance": "2.129978703168706",
        "perihelion_time": "2458748.775997028779",
        "mean_anomaly": "2.74527853812823",
        "mean_motion": ".4796081609200543",
        "equinox": "J2000",
        "orbit_class": {
            "orbit_class_type": "AMO",
            "orbit_class_description": "Near-Earth asteroid orbits similar to that of 1221 Amor",
            "orbit_class_range": "1.017 AU < q (perihelion) < 1.3 AU"
        }
    },
    "is_sentry_object": false
}